{
  "type": "FeatureCollection",
  "features": [
    {
      "type": "Feature",
      "properties": {
        "norad_id": 37781,
        "name": "HAIYANG-2A",
        "group": "resource",
        "lat": 77.17704047099589,
        "lon": -131.68572830872463,
        "alt_km": 959.7779062242562,
        "timestamp": "2025-12-27T07:26:24.877866+00:00",
        "meta_object_name": "HAIYANG-2A",
        "meta_object_id": "2011-043A",
        "meta_epoch": "2025-12-26T23:59:48.659136",
        "meta_mean_motion": 13.78835248,
        "meta_eccentricity": 0.00015482,
        "meta_inclination": 99.3383,
        "meta_ra_of_asc_node": 1.7145,
        "meta_arg_of_pericenter": 65.4316,
        "meta_mean_anomaly": 294.6997,
        "meta_ephemeris_type": 0,
        "meta_classification_type": "U",
        "meta_norad_cat_id": 37781,
        "meta_element_set_no": 999,
        "meta_rev_at_epoch": 72295,
        "meta_bstar": -0.0002806412,
        "meta_mean_motion_dot": -3.3e-06,
        "meta_mean_motion_ddot": 0,
        "tle_line1": "1 37781U 11043A   25360.99986874 -.00000330  00000+0 -28064-3 0  9991",
        "tle_line2": "2 37781  99.3383   1.7145 0001548  65.4316 294.6997 13.78835248722954"
      },
      "geometry": {
        "type": "Point",
        "coordinates": [
          -131.68572830872463,
          77.17704047099589
        ]
      }
    },
    {
      "type": "Feature",
      "properties": {
        "norad_id": 37791,
        "name": "RASAT",
        "group": "resource",
        "lat": -20.345202103099616,
        "lon": -92.6626007636987,
        "alt_km": 687.8632225445772,
        "timestamp": "2025-12-27T07:26:24.877877+00:00",
        "meta_object_name": "RASAT",
        "meta_object_id": "2011-044D",
        "meta_epoch": "2025-12-26T22:51:12.102624",
        "meta_mean_motion": 14.67928354,
        "meta_eccentricity": 0.00212155,
        "meta_inclination": 98.0637,
        "meta_ra_of_asc_node": 89.9984,
        "meta_arg_of_pericenter": 21.921,
        "meta_mean_anomaly": 88.9131,
        "meta_ephemeris_type": 0,
        "meta_classification_type": "U",
        "meta_norad_cat_id": 37791,
        "meta_element_set_no": 999,
        "meta_rev_at_epoch": 76791,
        "meta_bstar": 9.8204385e-05,
        "meta_mean_motion_dot": 5.15e-06,
        "meta_mean_motion_ddot": 0,
        "tle_line1": "1 37791U 11044D   25360.95222341  .00000515  00000+0  98204-4 0  9998",
        "tle_line2": "2 37791  98.0637  89.9984 0021215  21.9210  88.9131 14.67928354767914"
      },
      "geometry": {
        "type": "Point",
        "coordinates": [
          -92.6626007636987,
          -20.345202103099616
        ]
      }
    },
    {
      "type": "Feature",
      "properties": {
        "norad_id": 37841,
        "name": "SRMSAT",
        "group": "resource",
        "lat": 18.34323715083742,
        "lon": 133.87234791250643,
        "alt_km": 840.547475871901,
        "timestamp": "2025-12-27T07:26:24.877887+00:00",
        "meta_object_name": "SRMSAT",
        "meta_object_id": "2011-058D",
        "meta_epoch": "2025-12-26T18:04:39.351936",
        "meta_mean_motion": 14.11516169,
        "meta_eccentricity": 0.00119808,
        "meta_inclination": 19.9732,
        "meta_ra_of_asc_node": 23.141,
        "meta_arg_of_pericenter": 106.5213,
        "meta_mean_anomaly": 50.9064,
        "meta_ephemeris_type": 0,
        "meta_classification_type": "U",
        "meta_norad_cat_id": 37841,
        "meta_element_set_no": 999,
        "meta_rev_at_epoch": 73342,
        "meta_bstar": 9.6487334e-05,
        "meta_mean_motion_dot": 4.42e-06,
        "meta_mean_motion_ddot": 0,
        "tle_line1": "1 37841U 11058D   25360.75323324  .00000442  00000+0  96487-4 0  9990",
        "tle_line2": "2 37841  19.9732  23.1410 0011980 106.5213  50.9064 14.11516169733422"
      },
      "geometry": {
        "type": "Point",
        "coordinates": [
          133.87234791250643,
          18.34323715083742
        ]
      }
    },
    {
      "type": "Feature",
      "properties": {
        "norad_id": 38012,
        "name": "PLEIADES 1A",
        "group": "resource",
        "lat": -45.382824716121554,
        "lon": -114.53004715737455,
        "alt_km": 705.1662229018702,
        "timestamp": "2025-12-27T07:26:24.877898+00:00",
        "meta_object_name": "PLEIADES 1A",
        "meta_object_id": "2011-076F",
        "meta_epoch": "2025-12-26T22:58:02.113824",
        "meta_mean_motion": 14.5857426,
        "meta_eccentricity": 0.00010586,
        "meta_inclination": 98.1802,
        "meta_ra_of_asc_node": 73.5049,
        "meta_arg_of_pericenter": 76.8893,
        "meta_mean_anomaly": 96.3247,
        "meta_ephemeris_type": 0,
        "meta_classification_type": "U",
        "meta_norad_cat_id": 38012,
        "meta_element_set_no": 999,
        "meta_rev_at_epoch": 74688,
        "meta_bstar": 9.9721826e-05,
        "meta_mean_motion_dot": 4.18e-06,
        "meta_mean_motion_ddot": 0,
        "tle_line1": "1 38012U 11076F   25360.95696891  .00000418  00000+0  99722-4 0  9993",
        "tle_line2": "2 38012  98.1802  73.5049 0001058  76.8893  96.3247 14.58574260746883"
      },
      "geometry": {
        "type": "Point",
        "coordinates": [
          -114.53004715737455,
          -45.382824716121554
        ]
      }
    },
    {
      "type": "Feature",
      "properties": {
        "norad_id": 38038,
        "name": "ZIYUAN 1-02C (ZY 1-02C)",
        "group": "resource",
        "lat": 41.64274257117266,
        "lon": -105.36817950660816,
        "alt_km": 757.3213939451089,
        "timestamp": "2025-12-27T07:26:24.877908+00:00",
        "meta_object_name": "ZIYUAN 1-02C (ZY 1-02C)",
        "meta_object_id": "2011-079A",
        "meta_epoch": "2025-12-26T23:15:19.136736",
        "meta_mean_motion": 14.38027816,
        "meta_eccentricity": 0.00075868,
        "meta_inclination": 98.4311,
        "meta_ra_of_asc_node": 66.7189,
        "meta_arg_of_pericenter": 101.5126,
        "meta_mean_anomaly": 71.6469,
        "meta_ephemeris_type": 0,
        "meta_classification_type": "U",
        "meta_norad_cat_id": 38038,
        "meta_element_set_no": 999,
        "meta_rev_at_epoch": 73445,
        "meta_bstar": 0.00018853164,
        "meta_mean_motion_dot": 5.28e-06,
        "meta_mean_motion_ddot": 0,
        "tle_line1": "1 38038U 11079A   25360.96897149  .00000528  00000+0  18853-3 0  9991",
        "tle_line2": "2 38038  98.4311  66.7189 0007586 101.5126  71.6469 14.38027816734455"
      },
      "geometry": {
        "type": "Point",
        "coordinates": [
          -105.36817950660816,
          41.64274257117266
        ]
      }
    },
    {
      "type": "Feature",
      "properties": {
        "norad_id": 38338,
        "name": "ARIRANG-3 (KOMPSAT-3)",
        "group": "resource",
        "lat": -69.61704852782582,
        "lon": -20.752188462849368,
        "alt_km": 691.5715079002357,
        "timestamp": "2025-12-27T07:26:24.877919+00:00",
        "meta_object_name": "ARIRANG-3 (KOMPSAT-3)",
        "meta_object_id": "2012-025B",
        "meta_epoch": "2025-12-26T23:33:05.801760",
        "meta_mean_motion": 14.61731682,
        "meta_eccentricity": 0.00046474,
        "meta_inclination": 98.3343,
        "meta_ra_of_asc_node": 315.6796,
        "meta_arg_of_pericenter": 286.901,
        "meta_mean_anomaly": 73.168,
        "meta_ephemeris_type": 0,
        "meta_classification_type": "U",
        "meta_norad_cat_id": 38338,
        "meta_element_set_no": 999,
        "meta_rev_at_epoch": 72618,
        "meta_bstar": 0.00015658112,
        "meta_mean_motion_dot": 7.32e-06,
        "meta_mean_motion_ddot": 0,
        "tle_line1": "1 38338U 12025B   25360.98131715  .00000732  00000+0  15658-3 0  9995",
        "tle_line2": "2 38338  98.3343 315.6796 0004647 286.9010  73.1680 14.61731682726189"
      },
      "geometry": {
        "type": "Point",
        "coordinates": [
          -20.752188462849368,
          -69.61704852782582
        ]
      }
    },
    {
      "type": "Feature",
      "properties": {
        "norad_id": 38709,
        "name": "EXACTVIEW-1 (ADS-1B)",
        "group": "resource",
        "lat": 20.644272602252794,
        "lon": -66.58479797046178,
        "alt_km": 815.0145423542781,
        "timestamp": "2025-12-27T07:26:24.877929+00:00",
        "meta_object_name": "EXACTVIEW-1 (ADS-1B)",
        "meta_object_id": "2012-039C",
        "meta_epoch": "2025-12-26T22:16:10.543584",
        "meta_mean_motion": 14.24913804,
        "meta_eccentricity": 0.00100592,
        "meta_inclination": 98.964,
        "meta_ra_of_asc_node": 109.6159,
        "meta_arg_of_pericenter": 311.3293,
        "meta_mean_anomaly": 48.7019,
        "meta_ephemeris_type": 0,
        "meta_classification_type": "U",
        "meta_norad_cat_id": 38709,
        "meta_element_set_no": 999,
        "meta_rev_at_epoch": 69817,
        "meta_bstar": 0.00010116779,
        "meta_mean_motion_dot": 1.9e-06,
        "meta_mean_motion_ddot": 0,
        "tle_line1": "1 38709U 12039C   25360.92789981  .00000190  00000+0  10117-3 0  9993",
        "tle_line2": "2 38709  98.9640 109.6159 0010059 311.3293  48.7019 14.24913804698179"
      },
      "geometry": {
        "type": "Point",
        "coordinates": [
          -66.58479797046178,
          20.644272602252794
        ]
      }
    }
  ]
}